[{"OBJECT_NAME":"ALOS (DAICHI)","OBJECT_ID":"2006-002A","EPOCH":"2026-04-08T02:46:12.811584","MEAN_MOTION":14.69906109,"ECCENTRICITY":0.00012822,"INCLINATION":98.1264,"RA_OF_ASC_NODE":53.9345,"ARG_OF_PERICENTER":115.3474,"MEAN_ANOMALY":244.7865,"EPHEMERIS_TYPE":0,"CLASSIFICATION_TYPE":"U","NORAD_CAT_ID":28931,"ELEMENT_SET_NO":999,"REV_AT_EPOCH":7780,"BSTAR":0.00024080308,"MEAN_MOTION_DOT":1.391e-5,"MEAN_MOTION_DDOT":0},{"OBJECT_NAME":"H-2A R/B","OBJECT_ID":"2006-002B","EPOCH":"2026-04-08T03:56:53.085120","MEAN_MOTION":15.1713541,"ECCENTRICITY":0.00524848,"INCLINATION":98.247,"RA_OF_ASC_NODE":247.7477,"ARG_OF_PERICENTER":140.7826,"MEAN_ANOMALY":219.7226,"EPHEMERIS_TYPE":0,"CLASSIFICATION_TYPE":"U","NORAD_CAT_ID":28932,"ELEMENT_SET_NO":999,"REV_AT_EPOCH":9890,"BSTAR":0.00054403242,"MEAN_MOTION_DOT":0.00011109,"MEAN_MOTION_DDOT":0},{"OBJECT_NAME":"RESURS-DK 1","OBJECT_ID":"2006-021A","EPOCH":"2026-04-08T05:21:27.577440","MEAN_MOTION":15.12929452,"ECCENTRICITY":0.00022098,"INCLINATION":69.9323,"RA_OF_ASC_NODE":160.6222,"ARG_OF_PERICENTER":25.4723,"MEAN_ANOMALY":334.6552,"EPHEMERIS_TYPE":0,"CLASSIFICATION_TYPE":"U","NORAD_CAT_ID":29228,"ELEMENT_SET_NO":999,"REV_AT_EPOCH":9199,"BSTAR":0.00011013868,"MEAN_MOTION_DOT":1.837e-5,"MEAN_MOTION_DDOT":0},{"OBJECT_NAME":"CZ-4B R/B","OBJECT_ID":"2006-046C","EPOCH":"2026-04-08T02:13:53.174784","MEAN_MOTION":15.17225413,"ECCENTRICITY":0.00336424,"INCLINATION":97.5532,"RA_OF_ASC_NODE":142.9193,"ARG_OF_PERICENTER":163.1245,"MEAN_ANOMALY":197.1115,"EPHEMERIS_TYPE":0,"CLASSIFICATION_TYPE":"U","NORAD_CAT_ID":29507,"ELEMENT_SET_NO":999,"REV_AT_EPOCH":6450,"BSTAR":0.00019850154,"MEAN_MOTION_DOT":3.934e-5,"MEAN_MOTION_DDOT":0},{"OBJECT_NAME":"CZ-2C R/B","OBJECT_ID":"2007-010B","EPOCH":"2026-04-08T05:52:08.988672","MEAN_MOTION":14.20257862,"ECCENTRICITY":0.00585432,"INCLINATION":98.4009,"RA_OF_ASC_NODE":210.0464,"ARG_OF_PERICENTER":207.2406,"MEAN_ANOMALY":152.5697,"EPHEMERIS_TYPE":0,"CLASSIFICATION_TYPE":"U","NORAD_CAT_ID":31114,"ELEMENT_SET_NO":999,"REV_AT_EPOCH":98391,"BSTAR":8.5089576e-5,"MEAN_MOTION_DOT":1.44e-6,"MEAN_MOTION_DDOT":0},{"OBJECT_NAME":"COSMO-SKYMED 1","OBJECT_ID":"2007-023A","EPOCH":"2026-04-08T06:46:27.365088","MEAN_MOTION":14.96770529,"ECCENTRICITY":0.00017451,"INCLINATION":97.8887,"RA_OF_ASC_NODE":289.5565,"ARG_OF_PERICENTER":93.9205,"MEAN_ANOMALY":266.2216,"EPHEMERIS_TYPE":0,"CLASSIFICATION_TYPE":"U","NORAD_CAT_ID":31598,"ELEMENT_SET_NO":999,"REV_AT_EPOCH":1933,"BSTAR":0.00032904443,"MEAN_MOTION_DOT":3.705e-5,"MEAN_MOTION_DDOT":0},{"OBJECT_NAME":"COSMOS 2428","OBJECT_ID":"2007-029A","EPOCH":"2026-04-08T04:44:50.714880","MEAN_MOTION":14.12948855,"ECCENTRICITY":0.00096741,"INCLINATION":70.9416,"RA_OF_ASC_NODE":141.411,"ARG_OF_PERICENTER":246.2917,"MEAN_ANOMALY":113.719,"EPHEMERIS_TYPE":0,"CLASSIFICATION_TYPE":"U","NORAD_CAT_ID":31792,"ELEMENT_SET_NO":999,"REV_AT_EPOCH":96826,"BSTAR":-2.6523574e-5,"MEAN_MOTION_DOT":-9.7e-7,"MEAN_MOTION_DDOT":0},{"OBJECT_NAME":"SL-16 R/B","OBJECT_ID":"2007-029B","EPOCH":"2026-04-08T07:38:53.477664","MEAN_MOTION":14.1484321,"ECCENTRICITY":0.00029172,"INCLINATION":70.9733,"RA_OF_ASC_NODE":110.1028,"ARG_OF_PERICENTER":275.1992,"MEAN_ANOMALY":95.687,"EPHEMERIS_TYPE":0,"CLASSIFICATION_TYPE":"U","NORAD_CAT_ID":31793,"ELEMENT_SET_NO":999,"REV_AT_EPOCH":96956,"BSTAR":-8.3103946e-5,"MEAN_MOTION_DOT":-2.08e-6,"MEAN_MOTION_DDOT":0},{"OBJECT_NAME":"KORONAS-FOTON","OBJECT_ID":"2009-003A","EPOCH":"2026-04-08T03:04:24.313152","MEAN_MOTION":15.44197014,"ECCENTRICITY":0.00112095,"INCLINATION":82.4294,"RA_OF_ASC_NODE":245.2496,"ARG_OF_PERICENTER":53.3539,"MEAN_ANOMALY":306.8738,"EPHEMERIS_TYPE":0,"CLASSIFICATION_TYPE":"U","NORAD_CAT_ID":33504,"ELEMENT_SET_NO":999,"REV_AT_EPOCH":95028,"BSTAR":0.00029515245,"MEAN_MOTION_DOT":0.00013611,"MEAN_MOTION_DDOT":0},{"OBJECT_NAME":"CZ-2C R/B","OBJECT_ID":"2011-030B","EPOCH":"2026-04-07T20:38:20.677056","MEAN_MOTION":14.81326479,"ECCENTRICITY":0.00509756,"INCLINATION":97.8591,"RA_OF_ASC_NODE":54.5511,"ARG_OF_PERICENTER":255.1091,"MEAN_ANOMALY":158.6192,"EPHEMERIS_TYPE":0,"CLASSIFICATION_TYPE":"U","NORAD_CAT_ID":37731,"ELEMENT_SET_NO":999,"REV_AT_EPOCH":79441,"BSTAR":0.00017391197,"MEAN_MOTION_DOT":1.333e-5,"MEAN_MOTION_DDOT":0},{"OBJECT_NAME":"H-2A R/B","OBJECT_ID":"2012-025E","EPOCH":"2026-04-08T04:08:29.696352","MEAN_MOTION":14.95374388,"ECCENTRICITY":0.0043586,"INCLINATION":98.4774,"RA_OF_ASC_NODE":67.5936,"ARG_OF_PERICENTER":215.0318,"MEAN_ANOMALY":144.8032,"EPHEMERIS_TYPE":0,"CLASSIFICATION_TYPE":"U","NORAD_CAT_ID":38341,"ELEMENT_SET_NO":999,"REV_AT_EPOCH":75262,"BSTAR":0.00020751603,"MEAN_MOTION_DOT":2.263e-5,"MEAN_MOTION_DDOT":0},{"OBJECT_NAME":"SHIJIAN-16 (SJ-16)","OBJECT_ID":"2013-057A","EPOCH":"2026-04-08T07:49:34.967424","MEAN_MOTION":14.92450849,"ECCENTRICITY":0.00154689,"INCLINATION":74.9705,"RA_OF_ASC_NODE":128.9818,"ARG_OF_PERICENTER":35.7917,"MEAN_ANOMALY":324.4305,"EPHEMERIS_TYPE":0,"CLASSIFICATION_TYPE":"U","NORAD_CAT_ID":39358,"ELEMENT_SET_NO":999,"REV_AT_EPOCH":67592,"BSTAR":0.00012038802,"MEAN_MOTION_DOT":1.208e-5,"MEAN_MOTION_DDOT":0},{"OBJECT_NAME":"SL-4 R/B","OBJECT_ID":"2014-021B","EPOCH":"2026-04-08T05:24:24.564384","MEAN_MOTION":15.40303196,"ECCENTRICITY":0.0093886,"INCLINATION":51.6058,"RA_OF_ASC_NODE":193.0753,"ARG_OF_PERICENTER":210.8046,"MEAN_ANOMALY":148.7409,"EPHEMERIS_TYPE":0,"CLASSIFICATION_TYPE":"U","NORAD_CAT_ID":39679,"ELEMENT_SET_NO":999,"REV_AT_EPOCH":66082,"BSTAR":0.00032427678,"MEAN_MOTION_DOT":0.00015103,"MEAN_MOTION_DDOT":0},{"OBJECT_NAME":"ALOS-2","OBJECT_ID":"2014-029A","EPOCH":"2026-04-07T12:43:48.631008","MEAN_MOTION":14.79459327,"ECCENTRICITY":0.0001762,"INCLINATION":97.9196,"RA_OF_ASC_NODE":195.7083,"ARG_OF_PERICENTER":93.2091,"MEAN_ANOMALY":266.9322,"EPHEMERIS_TYPE":0,"CLASSIFICATION_TYPE":"U","NORAD_CAT_ID":39766,"ELEMENT_SET_NO":999,"REV_AT_EPOCH":64113,"BSTAR":1.4196e-5,"MEAN_MOTION_DOT":5.5e-7,"MEAN_MOTION_DDOT":0},{"OBJECT_NAME":"YAOGAN-29","OBJECT_ID":"2015-069A","EPOCH":"2026-04-08T06:42:27.166176","MEAN_MOTION":14.83027731,"ECCENTRICITY":3.521e-5,"INCLINATION":98.0099,"RA_OF_ASC_NODE":126.7827,"ARG_OF_PERICENTER":176.6335,"MEAN_ANOMALY":183.488,"EPHEMERIS_TYPE":0,"CLASSIFICATION_TYPE":"U","NORAD_CAT_ID":41038,"ELEMENT_SET_NO":999,"REV_AT_EPOCH":56026,"BSTAR":-7.044806e-6,"MEAN_MOTION_DOT":-1.11e-6,"MEAN_MOTION_DDOT":0},{"OBJECT_NAME":"ASTRO-H (HITOMI)","OBJECT_ID":"2016-012A","EPOCH":"2026-04-08T07:29:40.047648","MEAN_MOTION":15.10201967,"ECCENTRICITY":0.00096861,"INCLINATION":30.9982,"RA_OF_ASC_NODE":165.3563,"ARG_OF_PERICENTER":269.3065,"MEAN_ANOMALY":90.6463,"EPHEMERIS_TYPE":0,"CLASSIFICATION_TYPE":"U","NORAD_CAT_ID":41337,"ELEMENT_SET_NO":999,"REV_AT_EPOCH":55671,"BSTAR":0.00014538274,"MEAN_MOTION_DOT":2.532e-5,"MEAN_MOTION_DDOT":0}]
