ALOS (DAICHI)           
1 28931U 06002A   26098.11542606  .00001391  00000+0  24080-3 0  9991
2 28931  98.1264  53.9345 0001282 115.3474 244.7865 14.69906109 77805
H-2A R/B                
1 28932U 06002B   26098.16450330  .00011109  00000+0  54403-3 0  9999
2 28932  98.2470 247.7477 0052484 140.7826 219.7226 15.17135410 98908
RESURS-DK 1             
1 29228U 06021A   26098.22323585  .00001837  00000+0  11014-3 0  9995
2 29228  69.9323 160.6222 0002209  25.4723 334.6552 15.12929452 91998
CZ-4B R/B               
1 29507U 06046C   26098.09297656  .00003934  00000+0  19850-3 0  9992
2 29507  97.5532 142.9193 0033642 163.1245 197.1115 15.17225413 64506
CZ-2C R/B               
1 31114U 07010B   26098.24454848  .00000144  00000+0  85090-4 0  9996
2 31114  98.4009 210.0464 0058543 207.2406 152.5697 14.20257862983917
COSMO-SKYMED 1          
1 31598U 07023A   26098.28226117  .00003705  00000+0  32904-3 0  9997
2 31598  97.8887 289.5565 0001745  93.9205 266.2216 14.96770529 19331
COSMOS 2428             
1 31792U 07029A   26098.19780920 -.00000097  00000+0 -26524-4 0  9991
2 31792  70.9416 141.4110 0009674 246.2917 113.7190 14.12948855968260
SL-16 R/B               
1 31793U 07029B   26098.31867451 -.00000208  00000+0 -83104-4 0  9992
2 31793  70.9733 110.1028 0002917 275.1992  95.6870 14.14843210969569
KORONAS-FOTON           
1 33504U 09003A   26098.12805918  .00013611  00000+0  29515-3 0  9992
2 33504  82.4294 245.2496 0011209  53.3539 306.8738 15.44197014950284
CZ-2C R/B               
1 37731U 11030B   26097.85996154  .00001333  00000+0  17391-3 0  9990
2 37731  97.8591  54.5511 0050975 255.1091 158.6192 14.81326479794414
H-2A R/B                
1 38341U 12025E   26098.17256593  .00002263  00000+0  20752-3 0  9993
2 38341  98.4774  67.5936 0043586 215.0318 144.8032 14.95374388752628
SHIJIAN-16 (SJ-16)      
1 39358U 13057A   26098.32609916  .00001208  00000+0  12039-3 0  9993
2 39358  74.9705 128.9818 0015468  35.7917 324.4305 14.92450849675921
SL-4 R/B                
1 39679U 14021B   26098.22528431  .00015103  00000+0  32428-3 0  9995
2 39679  51.6058 193.0753 0093886 210.8046 148.7409 15.40303196660821
ALOS-2                  
1 39766U 14029A   26097.53042397  .00000055  00000+0  14196-4 0  9998
2 39766  97.9196 195.7083 0001762  93.2091 266.9322 14.79459327641133
YAOGAN-29               
1 41038U 15069A   26098.27948109 -.00000111  00000+0 -70448-5 0  9994
2 41038  98.0099 126.7827 0000352 176.6335 183.4880 14.83027731560264
ASTRO-H (HITOMI)        
1 41337U 16012A   26098.31226907  .00002532  00000+0  14538-3 0  9998
2 41337  30.9982 165.3563 0009686 269.3065  90.6463 15.10201967556714
